OBJECT_NAME,OBJECT_ID,EPOCH,MEAN_MOTION,ECCENTRICITY,INCLINATION,RA_OF_ASC_NODE,ARG_OF_PERICENTER,MEAN_ANOMALY,EPHEMERIS_TYPE,CLASSIFICATION_TYPE,NORAD_CAT_ID,ELEMENT_SET_NO,REV_AT_EPOCH,BSTAR,MEAN_MOTION_DOT,MEAN_MOTION_DDOT
SL-8 R/B,1985-006B,2026-07-18T21:32:52.908576,14.37846536,.00192486,74.0455,19.7067,262.2268,241.9816,0,U,15483,999,17288,.49058712E-4,.122E-5,0
SL-12 R/B(2),1985-042D,2026-07-18T08:18:00.465408,14.22011301,.00373702,71.1068,171.6849,281.5712,247.4621,0,U,15772,999,13296,.52871775E-4,.7E-6,0
SL-14 R/B,1985-069B,2026-07-18T16:07:01.092288,14.86536436,.00202059,82.5258,261.7568,116.5352,243.7939,0,U,15945,999,19229,.1806532E-4,.185E-5,0
SL-16 R/B,1985-097B,2026-07-18T13:41:07.592064,14.16614396,.0005793,71.0005,225.0070,44.7326,126.0378,0,U,16182,999,10576,.14316E-3,.238E-5,0
SL-14 R/B,1986-006B,2026-07-18T21:08:58.842240,14.86969853,.00757817,82.5284,136.2895,196.5244,163.3503,0,U,16496,999,16870,.22500228E-4,.239E-5,0
COSMOS 1743,1986-034A,2026-07-18T17:27:54.160416,15.69887978,.0005533,82.5274,295.1252,165.7831,194.3587,0,U,16719,999,20073,.29797026E-3,.35738E-3,0
SL-14 R/B,1986-046B,2026-07-18T19:23:15.534816,14.85692119,.00238583,82.4840,316.2976,151.3732,208.8800,0,U,16792,999,14587,.25402521E-4,.246E-5,0
SL-14 R/B,1986-055B,2026-07-18T21:16:22.932192,14.85741658,.00173623,82.5206,3.3254,256.9911,271.4571,0,U,16882,999,13884,.21871281E-4,.214E-5,0
AJISAI (EGS),1986-061A,2026-07-18T22:54:18.904608,12.44516691,.00110783,50.0103,49.7121,261.5075,245.9192,0,U,16908,999,48434,.25233597E-4,-.94E-6,0
SL-14 R/B,1987-024B,2026-07-18T20:39:40.109760,14.86233273,.00181595,82.5302,329.4789,181.4836,178.6330,0,U,17567,999,10761,.23620729E-4,.233E-5,0
COSMOS 1833,1987-027A,2026-07-18T21:25:23.848032,14.13067407,.00245154,70.9213,50.2287,2.7728,357.3525,0,U,17589,999,2885,.3520478E-4,.18E-6,0
SL-16 R/B,1987-027B,2026-07-18T20:06:25.903584,14.17174860,.00071882,71.0036,0.1294,277.9978,82.0330,0,U,17590,999,3392,.12638666E-3,.207E-5,0
SL-14 R/B,1987-038B,2026-07-18T22:09:42.255072,14.85462819,.00208778,82.5015,173.1785,90.8300,269.5309,0,U,17912,999,9871,.21880506E-4,.214E-5,0
COSMOS 1844,1987-041A,2026-07-18T20:34:51.860352,14.14581289,.00310804,70.8999,117.5053,190.0245,170.0261,0,U,17973,999,2213,.16290292E-4,-.17E-6,0
SL-14 R/B,1987-055B,2026-07-18T22:39:59.834592,14.85728224,.00192081,82.4969,225.2903,301.8631,58.0716,0,U,18153,999,8942,.17690306E-4,.178E-5,0
COSMOS 1867,1987-060A,2026-07-18T17:02:52.691712,14.31518720,.00172403,65.0117,299.7759,281.9861,77.9291,0,U,18187,999,3869,.1903032E-4,-.5E-6,0
SL-14 R/B,1988-001B,2026-07-18T17:55:11.773056,14.85627938,.00184412,82.5117,72.0806,160.2499,199.9436,0,U,18749,999,6148,.16644332E-4,.169E-5,0
COSMOS 1933,1988-020A,2026-07-18T20:36:50.249952,15.18903253,.00059252,82.5140,121.0695,98.1199,262.0708,0,U,18958,999,7013,.97132844E-4,.2058E-4,0
SL-3 R/B,1988-032B,2026-07-18T21:19:10.984512,15.21047399,.00267968,97.5278,182.9050,133.4055,226.9418,0,U,19046,999,7204,.98667399E-4,.2139E-4,0
SL-16 R/B,1988-039B,2026-07-18T21:34:55.604352,14.19631584,.00204137,71.0142,151.1030,143.3895,216.8630,0,U,19120,999,97700,.7518994E-4,.111E-5,0
COSMOS 1953,1988-050A,2026-07-18T22:20:20.830560,15.30366930,.00111409,82.5069,26.0091,27.9181,332.2655,0,U,19210,999,5784,.14348637E-3,.4254E-4,0
SL-8 R/B,1988-053B,2026-07-18T07:03:33.107616,14.38979213,.00198471,74.0454,231.7163,16.3577,63.5796,0,U,19257,999,99538,.41830543E-4,.103E-5,0
COSMOS 1975,1988-093A,2026-07-18T21:12:55.311264,15.29689461,.00123944,82.5208,345.8071,70.9795,289.2787,0,U,19573,999,3945,.14045255E-3,.4082E-4,0
SL-14 R/B,1988-093B,2026-07-18T17:37:44.395968,14.85761246,.00197273,82.5313,279.0295,328.1733,149.0758,0,U,19574,999,2047,.17863323E-4,.18E-5,0
SL-16 R/B,1988-102B,2026-07-18T18:58:34.834944,14.16166899,.00140976,70.9973,235.6415,179.8487,180.2643,0,U,19650,999,94545,.69904821E-4,.91E-6,0
INTERCOSMOS 24,1989-080A,2026-07-18T20:42:57.735072,12.59692872,.11870083,82.6054,19.0261,348.4315,9.1533,0,U,20261,999,68331,.30950912E-4,.117E-5,0
SL-14 R/B,1989-080C,2026-07-18T16:23:16.827360,12.50578861,.1228826,82.5930,89.0709,245.3107,101.5317,0,U,20262,999,67652,.14153951E-4,.51E-6,0
DELTA 1 R/B,1989-089B,2026-07-18T19:24:22.053312,14.50748924,.00705759,97.0637,26.3067,68.8071,292.0649,0,U,20323,999,91474,.34049153E-4,.103E-5,0
ARIANE 40 R/B,1990-005H,2026-07-18T17:32:57.046848,14.39941618,.00105058,98.2941,256.3636,163.6868,196.4661,0,U,20443,999,91166,.38101779E-4,.78E-6,0
DELTA 2 R/B(1),1990-008B,2026-07-18T13:45:59.859936,15.74164493,.0057119,35.5998,24.8567,48.2970,312.2639,0,U,20453,999,94664,.48844E-3,.81373E-3,0
