SL-8 R/B                
1 15483U 85006B   26199.89783459  .00000122  00000+0  49059-4 0  9995
2 15483  74.0455  19.7067 0019248 262.2268 241.9816 14.37846536172884
SL-12 R/B(2)            
1 15772U 85042D   26199.34583872  .00000070  00000+0  52872-4 0  9992
2 15772  71.1068 171.6849 0037370 281.5712 247.4621 14.22011301132961
SL-14 R/B               
1 15945U 85069B   26199.67154042  .00000185  00000+0  18065-4 0  9995
2 15945  82.5258 261.7568 0020205 116.5352 243.7939 14.86536436192299
SL-16 R/B               
1 16182U 85097B   26199.57022676  .00000238  00000+0  14316-3 0  9999
2 16182  71.0005 225.0070 0005793  44.7326 126.0378 14.16614396105766
SL-14 R/B               
1 16496U 86006B   26199.88123660  .00000239  00000+0  22500-4 0  9993
2 16496  82.5284 136.2895 0075781 196.5244 163.3503 14.86969853168702
COSMOS 1743             
1 16719U 86034A   26199.72771019  .00035738  00000+0  29797-3 0  9998
2 16719  82.5274 295.1252 0005533 165.7831 194.3587 15.69887978200734
SL-14 R/B               
1 16792U 86046B   26199.80781869  .00000246  00000+0  25403-4 0  9992
2 16792  82.4840 316.2976 0023858 151.3732 208.8800 14.85692119145872
SL-14 R/B               
1 16882U 86055B   26199.88637653  .00000214  00000+0  21871-4 0  9991
2 16882  82.5206   3.3254 0017362 256.9911 271.4571 14.85741658138849
AJISAI (EGS)            
1 16908U 86061A   26199.95438547 -.00000094  00000+0  25234-4 0  9990
2 16908  50.0103  49.7121 0011078 261.5075 245.9192 12.44516691484346
SL-14 R/B               
1 17567U 87024B   26199.86088090  .00000233  00000+0  23621-4 0  9998
2 17567  82.5302 329.4789 0018159 181.4836 178.6330 14.86233273107617
COSMOS 1833             
1 17589U 87027A   26199.89263713  .00000018  00000+0  35205-4 0  9997
2 17589  70.9213  50.2287 0024515   2.7728 357.3525 14.13067407 28857
SL-16 R/B               
1 17590U 87027B   26199.83779981  .00000207  00000+0  12639-3 0  9997
2 17590  71.0036   0.1294 0007188 277.9978  82.0330 14.17174860 33922
SL-14 R/B               
1 17912U 87038B   26199.92340573  .00000214  00000+0  21881-4 0  9996
2 17912  82.5015 173.1785 0020877  90.8300 269.5309 14.85462819 98716
COSMOS 1844             
1 17973U 87041A   26199.85754468 -.00000017  00000+0  16290-4 0  9991
2 17973  70.8999 117.5053 0031080 190.0245 170.0261 14.14581289 22134
SL-14 R/B               
1 18153U 87055B   26199.94444253  .00000178  00000+0  17690-4 0  9997
2 18153  82.4969 225.2903 0019208 301.8631  58.0716 14.85728224 89426
COSMOS 1867             
1 18187U 87060A   26199.71033208 -.00000050  00000+0  19030-4 0  9999
2 18187  65.0117 299.7759 0017240 281.9861  77.9291 14.31518720 38697
SL-14 R/B               
1 18749U 88001B   26199.74666404  .00000169  00000+0  16644-4 0  9990
2 18749  82.5117  72.0806 0018441 160.2499 199.9436 14.85627938 61480
COSMOS 1933             
1 18958U 88020A   26199.85891493  .00002058  00000+0  97133-4 0  9994
2 18958  82.5140 121.0695 0005925  98.1199 262.0708 15.18903253 70138
SL-3 R/B                
1 19046U 88032B   26199.88832158  .00002139  00000+0  98667-4 0  9995
2 19046  97.5278 182.9050 0026796 133.4055 226.9418 15.21047399 72042
SL-16 R/B               
1 19120U 88039B   26199.89925468  .00000111  00000+0  75190-4 0  9997
2 19120  71.0142 151.1030 0020413 143.3895 216.8630 14.19631584977005
COSMOS 1953             
1 19210U 88050A   26199.93079665  .00004254  00000+0  14349-3 0  9994
2 19210  82.5069  26.0091 0011140  27.9181 332.2655 15.30366930 57844
SL-8 R/B                
1 19257U 88053B   26199.29413319  .00000103  00000+0  41831-4 0  9991
2 19257  74.0454 231.7163 0019847  16.3577  63.5796 14.38979213995388
COSMOS 1975             
1 19573U 88093A   26199.88397351  .00004082  00000+0  14045-3 0  9994
2 19573  82.5208 345.8071 0012394  70.9795 289.2787 15.29689461 39451
SL-14 R/B               
1 19574U 88093B   26199.73454162  .00000180  00000+0  17863-4 0  9990
2 19574  82.5313 279.0295 0019727 328.1733 149.0758 14.85761246 20478
SL-16 R/B               
1 19650U 88102B   26199.79068096  .00000091  00000+0  69905-4 0  9994
2 19650  70.9973 235.6415 0014097 179.8487 180.2643 14.16166899945451
INTERCOSMOS 24          
1 20261U 89080A   26199.86316823  .00000117  00000+0  30951-4 0  9990
2 20261  82.6054  19.0261 1187008 348.4315   9.1533 12.59692872683313
SL-14 R/B               
1 20262U 89080C   26199.68283365  .00000051  00000+0  14154-4 0  9999
2 20262  82.5930  89.0709 1228826 245.3107 101.5317 12.50578861676522
DELTA 1 R/B             
1 20323U 89089B   26199.80858858  .00000103  00000+0  34049-4 0  9998
2 20323  97.0637  26.3067 0070575  68.8071 292.0649 14.50748924914743
ARIANE 40 R/B           
1 20443U 90005H   26199.73121582  .00000078  00000+0  38102-4 0  9995
2 20443  98.2941 256.3636 0010505 163.6868 196.4661 14.39941618911660
DELTA 2 R/B(1)          
1 20453U 90008B   26199.57360949  .00081373  00000+0  48844-3 0  9993
2 20453  35.5998  24.8567 0057119  48.2970 312.2639 15.74164493946649
